{
  "links" : {
    "next" : "https://api.nasa.gov/neo/rest/v1/feed?start_date=2015-02-16&end_date=2015-02-16&detailed=true&api_key=t0TVs3DtDT2H8Oy2Zy8m2eVrNsAVKAexjcZXUckd",
    "prev" : "https://api.nasa.gov/neo/rest/v1/feed?start_date=2015-02-14&end_date=2015-02-14&detailed=true&api_key=t0TVs3DtDT2H8Oy2Zy8m2eVrNsAVKAexjcZXUckd",
    "self" : "https://api.nasa.gov/neo/rest/v1/feed?start_date=2015-02-15&end_date=2015-02-15&detailed=true&api_key=t0TVs3DtDT2H8Oy2Zy8m2eVrNsAVKAexjcZXUckd"
  },
  "element_count" : 16,
  "near_earth_objects" : {
    "2015-02-15" : [ {
      "links" : {
        "self" : "https://api.nasa.gov/neo/rest/v1/neo/3371135?api_key=t0TVs3DtDT2H8Oy2Zy8m2eVrNsAVKAexjcZXUckd"
      },
      "neo_reference_id" : "3371135",
      "name" : "(2007 EF88)",
      "nasa_jpl_url" : "http://ssd.jpl.nasa.gov/sbdb.cgi?sstr=3371135",
      "absolute_magnitude_h" : 23.4,
      "estimated_diameter" : {
        "kilometers" : {
          "estimated_diameter_min" : 0.0555334912,
          "estimated_diameter_max" : 0.1241766613
        },
        "meters" : {
          "estimated_diameter_min" : 55.5334911581,
          "estimated_diameter_max" : 124.1766612574
        },
        "miles" : {
          "estimated_diameter_min" : 0.0345069009,
          "estimated_diameter_max" : 0.0771597762
        },
        "feet" : {
          "estimated_diameter_min" : 182.1964991311,
          "estimated_diameter_max" : 407.4037573197
        }
      },
      "is_potentially_hazardous_asteroid" : false,
      "close_approach_data" : [ {
        "close_approach_date" : "2015-02-15",
        "epoch_date_close_approach" : 1423987200000,
        "relative_velocity" : {
          "kilometers_per_second" : "7.7958000506",
          "kilometers_per_hour" : "28064.8801820534",
          "miles_per_hour" : "17438.4251331209"
        },
        "miss_distance" : {
          "astronomical" : "0.0893950142",
          "lunar" : "34.7746620178",
          "kilometers" : "13373304",
          "miles" : "8309786"
        },
        "orbiting_body" : "Earth"
      } ],
      "orbital_data" : {
        "orbit_id" : "12",
        "orbit_determination_date" : "2017-04-06 09:06:46",
        "orbit_uncertainty" : "1",
        "minimum_orbit_intersection" : ".0916251",
        "jupiter_tisserand_invariant" : "3.196",
        "epoch_osculation" : "2458000.5",
        "eccentricity" : ".5800483171071485",
        "semi_major_axis" : "2.509042937647457",
        "inclination" : "7.324237717530292",
        "ascending_node_longitude" : "166.52240962",
        "orbital_period" : "1451.645483309709",
        "perihelion_distance" : "1.053676804115473",
        "perihelion_argument" : "325.2031978967148",
        "aphelion_distance" : "3.964409071179441",
        "perihelion_time" : "2458508.182412637591",
        "mean_anomaly" : "234.0975874269023",
        "mean_motion" : ".2479944339985894",
        "equinox" : "J2000"
      }
    }, {
      "links" : {
        "self" : "https://api.nasa.gov/neo/rest/v1/neo/3601673?api_key=t0TVs3DtDT2H8Oy2Zy8m2eVrNsAVKAexjcZXUckd"
      },
      "neo_reference_id" : "3601673",
      "name" : "(2012 FT35)",
      "nasa_jpl_url" : "http://ssd.jpl.nasa.gov/sbdb.cgi?sstr=3601673",
      "absolute_magnitude_h" : 29.2,
      "estimated_diameter" : {
        "kilometers" : {
          "estimated_diameter_min" : 0.0038419789,
          "estimated_diameter_max" : 0.008590926
        },
        "meters" : {
          "estimated_diameter_min" : 3.8419789106,
          "estimated_diameter_max" : 8.5909260123
        },
        "miles" : {
          "estimated_diameter_min" : 0.0023872943,
          "estimated_diameter_max" : 0.0053381523
        },
        "feet" : {
          "estimated_diameter_min" : 12.6049180892,
          "estimated_diameter_max" : 28.1854536983
        }
      },
      "is_potentially_hazardous_asteroid" : false,
      "close_approach_data" : [ {
        "close_approach_date" : "2015-02-15",
        "epoch_date_close_approach" : 1423987200000,
        "relative_velocity" : {
          "kilometers_per_second" : "10.1818442209",
          "kilometers_per_hour" : "36654.6391951633",
          "miles_per_hour" : "22775.7673376836"
        },
        "miss_distance" : {
          "astronomical" : "0.204307482",
          "lunar" : "79.4756088257",
          "kilometers" : "30563964",
          "miles" : "18991568"
        },
        "orbiting_body" : "Earth"
      } ],
      "orbital_data" : {
        "orbit_id" : "8",
        "orbit_determination_date" : "2017-04-06 08:50:20",
        "orbit_uncertainty" : "6",
        "minimum_orbit_intersection" : ".00298952",
        "jupiter_tisserand_invariant" : "7.021",
        "epoch_osculation" : "2458000.5",
        "eccentricity" : ".2039980767338831",
        "semi_major_axis" : ".8338484132417251",
        "inclination" : "5.124043884515278",
        "ascending_node_longitude" : "185.0798931891034",
        "orbital_period" : "278.1179931044737",
        "perihelion_distance" : ".663744940652813",
        "perihelion_argument" : "169.5821795647569",
        "aphelion_distance" : "1.003951885830637",
        "perihelion_time" : "2458086.181324935989",
        "mean_anomaly" : "249.0928392203333",
        "mean_motion" : "1.294414633089804",
        "equinox" : "J2000"
      }
    }, {
      "links" : {
        "self" : "https://api.nasa.gov/neo/rest/v1/neo/3648643?api_key=t0TVs3DtDT2H8Oy2Zy8m2eVrNsAVKAexjcZXUckd"
      },
      "neo_reference_id" : "3648643",
      "name" : "(2013 SL20)",
      "nasa_jpl_url" : "http://ssd.jpl.nasa.gov/sbdb.cgi?sstr=3648643",
      "absolute_magnitude_h" : 24.5,
      "estimated_diameter" : {
        "kilometers" : {
          "estimated_diameter_min" : 0.0334622374,
          "estimated_diameter_max" : 0.0748238376
        },
        "meters" : {
          "estimated_diameter_min" : 33.4622374455,
          "estimated_diameter_max" : 74.8238376074
        },
        "miles" : {
          "estimated_diameter_min" : 0.0207924639,
          "estimated_diameter_max" : 0.0464933628
        },
        "feet" : {
          "estimated_diameter_min" : 109.7842471007,
          "estimated_diameter_max" : 245.4850393757
        }
      },
      "is_potentially_hazardous_asteroid" : false,
      "close_approach_data" : [ {
        "close_approach_date" : "2015-02-15",
        "epoch_date_close_approach" : 1423987200000,
        "relative_velocity" : {
          "kilometers_per_second" : "12.9975781815",
          "kilometers_per_hour" : "46791.2814534806",
          "miles_per_hour" : "29074.2826342475"
        },
        "miss_distance" : {
          "astronomical" : "0.3307617341",
          "lunar" : "128.6663208008",
          "kilometers" : "49481252",
          "miles" : "30746224"
        },
        "orbiting_body" : "Earth"
      } ],
      "orbital_data" : {
        "orbit_id" : "12",
        "orbit_determination_date" : "2017-04-06 08:44:33",
        "orbit_uncertainty" : "7",
        "minimum_orbit_intersection" : ".0157152",
        "jupiter_tisserand_invariant" : "5.645",
        "epoch_osculation" : "2458000.5",
        "eccentricity" : ".402979713386451",
        "semi_major_axis" : "1.081029038813631",
        "inclination" : "4.341887964842829",
        "ascending_node_longitude" : "8.729539435667014",
        "orbital_period" : "410.5390444988166",
        "perihelion_distance" : ".6453962665900835",
        "perihelion_argument" : "115.3740052464253",
        "aphelion_distance" : "1.516661811037179",
        "perihelion_time" : "2457877.977797135783",
        "mean_anomaly" : "107.4392158849714",
        "mean_motion" : ".8768958880378495",
        "equinox" : "J2000"
      }
    } ]
  }
}